CALSPHERE 1             
1 00900U 64063C   17277.90370757  .00000275  00000-0  28658-3 0  9996
2 00900  90.1479  13.1070 0028782 140.4866 331.4195 13.72975206635067
CALSPHERE 2             
1 00902U 64063E   17277.81217024  .00000035  00000-0  38974-4 0  9992
2 00902  90.1556  15.4511 0020245  90.8713  30.1601 13.52652503426709
LCS 1                   
1 01361U 65034C   17277.87588331  .00000023  00000-0  19393-2 0  9998
2 01361  32.1381 160.9995 0011545 167.5496 192.5288  9.89292655895220
TEMPSAT 1               
1 01512U 65065E   17277.95383083  .00000016  00000-0  12599-4 0  9991
2 01512  89.8271 240.3752 0070199 168.2386 254.3758 13.33404036536622
CALSPHERE 4(A)          
1 01520U 65065H   17277.90455074  .00000083  00000-0  14183-3 0  9999
2 01520  90.0742 123.6078 0071220  64.5626   1.9956 13.35744085538499
OPS 5712 (P/L 160)      
1 02826U 67053A   17277.88974780  .00000755  00000-0  21938-3 0  9997
2 02826  69.9299 345.9592 0009280 256.9161 103.0935 14.48045160604060
OPS 5712 (P/L 153)      
1 02874U 67053H   17277.57234324 -.00000033  00000-0  15015-4 0  9999
2 02874  69.9725  82.1917 0008097 339.6998  20.3785 13.96296998563630
SURCAL 150B             
1 02909U 67053J   17277.90825951  .00001182  00000-0  25787-3 0  9998
2 02909  69.9489  53.8917 0006543 308.0375  52.0173 14.60357723612773
RIGIDSPHERE 2 (LCS 4)   
1 05398U 71067E   17277.95802386  .00000228  00000-0  74473-4 0  9992
2 05398  87.6226 136.2450 0061570 285.2602  74.1794 14.33619929418296
